{
  "type": "FeatureCollection",
  "features": [
    {
      "type": "Feature",
      "properties": {
        "norad_id": 28054,
        "name": "DMSP 5D-3 F16 (USA 172)",
        "group": "weather",
        "lat": 58.892956073307865,
        "lon": -161.73642375537202,
        "alt_km": 842.8270008669133,
        "timestamp": "2025-12-11T13:55:01.810296+00:00",
        "meta_object_name": "DMSP 5D-3 F16 (USA 172)",
        "meta_object_id": "2003-048A",
        "meta_epoch": "2025-12-11T06:50:36.571200",
        "meta_mean_motion": 14.1442351,
        "meta_eccentricity": 0.00065468,
        "meta_inclination": 99.0048,
        "meta_ra_of_asc_node": 2.7307,
        "meta_arg_of_pericenter": 325.4472,
        "meta_mean_anomaly": 94.4249,
        "meta_ephemeris_type": 0,
        "meta_classification_type": "U",
        "meta_norad_cat_id": 28054,
        "meta_element_set_no": 999,
        "meta_rev_at_epoch": 14292,
        "meta_bstar": 0.00013941653,
        "meta_mean_motion_dot": 2.21e-06,
        "meta_mean_motion_ddot": 0,
        "tle_line1": "1 28054U 03048A   25345.28514550  .00000221  00000+0  13942-3 0  9999",
        "tle_line2": "2 28054  99.0048   2.7307 0006546 325.4472  94.4249 14.14423510142923"
      },
      "geometry": {
        "type": "Point",
        "coordinates": [
          -161.73642375537202,
          58.892956073307865
        ]
      }
    },
    {
      "type": "Feature",
      "properties": {
        "norad_id": 28912,
        "name": "METEOSAT-9 (MSG-2)",
        "group": "weather",
        "lat": -8.832475738211732,
        "lon": -24.889740848510563,
        "alt_km": 35785.74139612127,
        "timestamp": "2025-12-11T13:55:01.810346+00:00",
        "meta_object_name": "METEOSAT-9 (MSG-2)",
        "meta_object_id": "2005-049B",
        "meta_epoch": "2025-12-10T20:37:31.694304",
        "meta_mean_motion": 1.00275463,
        "meta_eccentricity": 0.0003704,
        "meta_inclination": 8.9357,
        "meta_ra_of_asc_node": 55.9949,
        "meta_arg_of_pericenter": 190.2808,
        "meta_mean_anomaly": 188.5842,
        "meta_ephemeris_type": 0,
        "meta_classification_type": "U",
        "meta_norad_cat_id": 28912,
        "meta_element_set_no": 999,
        "meta_rev_at_epoch": 511,
        "meta_bstar": 0,
        "meta_mean_motion_dot": 1.27e-06,
        "meta_mean_motion_ddot": 0,
        "tle_line1": "1 28912U 05049B   25344.85939461  .00000127  00000+0  00000+0 0  9991",
        "tle_line2": "2 28912   8.9357  55.9949 0003704 190.2808 188.5842  1.00275463  5110"
      },
      "geometry": {
        "type": "Point",
        "coordinates": [
          -24.889740848510563,
          -8.832475738211732
        ]
      }
    },
    {
      "type": "Feature",
      "properties": {
        "norad_id": 29522,
        "name": "DMSP 5D-3 F17 (USA 191)",
        "group": "weather",
        "lat": 57.02550100304691,
        "lon": -22.722143271546223,
        "alt_km": 843.7327338079795,
        "timestamp": "2025-12-11T13:55:01.810364+00:00",
        "meta_object_name": "DMSP 5D-3 F17 (USA 191)",
        "meta_object_id": "2006-050A",
        "meta_epoch": "2025-12-11T06:51:16.337664",
        "meta_mean_motion": 14.14918632,
        "meta_eccentricity": 0.00093486,
        "meta_inclination": 98.7394,
        "meta_ra_of_asc_node": 350.705,
        "meta_arg_of_pericenter": 229.3801,
        "meta_mean_anomaly": 130.6561,
        "meta_ephemeris_type": 0,
        "meta_classification_type": "U",
        "meta_norad_cat_id": 29522,
        "meta_element_set_no": 999,
        "meta_rev_at_epoch": 98584,
        "meta_bstar": 0.00016966865,
        "meta_mean_motion_dot": 2.85e-06,
        "meta_mean_motion_ddot": 0,
        "tle_line1": "1 29522U 06050A   25345.28560576  .00000285  00000+0  16967-3 0  9995",
        "tle_line2": "2 29522  98.7394 350.7050 0009348 229.3801 130.6561 14.14918632985846"
      },
      "geometry": {
        "type": "Point",
        "coordinates": [
          -22.722143271546223,
          57.02550100304691
        ]
      }
    },
    {
      "type": "Feature",
      "properties": {
        "norad_id": 32958,
        "name": "FENGYUN 3A",
        "group": "weather",
        "lat": 65.41913910366603,
        "lon": 124.6153949032386,
        "alt_km": 825.9349561448053,
        "timestamp": "2025-12-11T13:55:01.810377+00:00",
        "meta_object_name": "FENGYUN 3A",
        "meta_object_id": "2008-026A",
        "meta_epoch": "2025-12-11T06:37:10.784928",
        "meta_mean_motion": 14.19513945,
        "meta_eccentricity": 0.00079603,
        "meta_inclination": 98.6696,
        "meta_ra_of_asc_node": 284.8335,
        "meta_arg_of_pericenter": 315.0563,
        "meta_mean_anomaly": 44.9968,
        "meta_ephemeris_type": 0,
        "meta_classification_type": "U",
        "meta_norad_cat_id": 32958,
        "meta_element_set_no": 999,
        "meta_rev_at_epoch": 90874,
        "meta_bstar": 0.00012366066,
        "meta_mean_motion_dot": 2.17e-06,
        "meta_mean_motion_ddot": 0,
        "tle_line1": "1 32958U 08026A   25345.27581927  .00000217  00000+0  12366-3 0  9993",
        "tle_line2": "2 32958  98.6696 284.8335 0007960 315.0563  44.9968 14.19513945908741"
      },
      "geometry": {
        "type": "Point",
        "coordinates": [
          124.6153949032386,
          65.41913910366603
        ]
      }
    },
    {
      "type": "Feature",
      "properties": {
        "norad_id": 35491,
        "name": "GOES 14",
        "group": "weather",
        "lat": 1.1897879624126964,
        "lon": -179.49135502787735,
        "alt_km": 35824.2973034603,
        "timestamp": "2025-12-11T13:55:01.810392+00:00",
        "meta_object_name": "GOES 14",
        "meta_object_id": "2009-033A",
        "meta_epoch": "2025-12-10T16:27:03.557376",
        "meta_mean_motion": 1.00162418,
        "meta_eccentricity": 0.0003441,
        "meta_inclination": 1.1989,
        "meta_ra_of_asc_node": 85.3725,
        "meta_arg_of_pericenter": 333.0778,
        "meta_mean_anomaly": 159.5038,
        "meta_ephemeris_type": 0,
        "meta_classification_type": "U",
        "meta_norad_cat_id": 35491,
        "meta_element_set_no": 999,
        "meta_rev_at_epoch": 470,
        "meta_bstar": 0,
        "meta_mean_motion_dot": -4.6e-07,
        "meta_mean_motion_ddot": 0,
        "tle_line1": "1 35491U 09033A   25344.68545784 -.00000046  00000+0  00000+0 0  9991",
        "tle_line2": "2 35491   1.1989  85.3725 0003441 333.0778 159.5038  1.00162418  4700"
      },
      "geometry": {
        "type": "Point",
        "coordinates": [
          -179.49135502787735,
          1.1897879624126964
        ]
      }
    },
    {
      "type": "Feature",
      "properties": {
        "norad_id": 35951,
        "name": "DMSP 5D-3 F18 (USA 210)",
        "group": "weather",
        "lat": -71.71824434316687,
        "lon": -9.757707737381475,
        "alt_km": 857.0052238135422,
        "timestamp": "2025-12-11T13:55:01.810405+00:00",
        "meta_object_name": "DMSP 5D-3 F18 (USA 210)",
        "meta_object_id": "2009-057A",
        "meta_epoch": "2025-12-11T05:46:47.096832",
        "meta_mean_motion": 14.14768009,
        "meta_eccentricity": 0.00120767,
        "meta_inclination": 98.8834,
        "meta_ra_of_asc_node": 321.6491,
        "meta_arg_of_pericenter": 66.6749,
        "meta_mean_anomaly": 293.5693,
        "meta_ephemeris_type": 0,
        "meta_classification_type": "U",
        "meta_norad_cat_id": 35951,
        "meta_element_set_no": 999,
        "meta_rev_at_epoch": 83301,
        "meta_bstar": 0.00024956786,
        "meta_mean_motion_dot": 4.37e-06,
        "meta_mean_motion_ddot": 0,
        "tle_line1": "1 35951U 09057A   25345.24082288  .00000437  00000+0  24957-3 0  9990",
        "tle_line2": "2 35951  98.8834 321.6491 0012076  66.6749 293.5693 14.14768009833017"
      },
      "geometry": {
        "type": "Point",
        "coordinates": [
          -9.757707737381475,
          -71.71824434316687
        ]
      }
    },
    {
      "type": "Feature",
      "properties": {
        "norad_id": 36411,
        "name": "EWS-G2 (GOES 15)",
        "group": "weather",
        "lat": -0.8041511572082995,
        "lon": -9.223962617183798,
        "alt_km": 35787.06073344687,
        "timestamp": "2025-12-11T13:55:01.810419+00:00",
        "meta_object_name": "EWS-G2 (GOES 15)",
        "meta_object_id": "2010-008A",
        "meta_epoch": "2025-12-11T05:14:32.294976",
        "meta_mean_motion": 1.00269399,
        "meta_eccentricity": 0.00058279,
        "meta_inclination": 0.8105,
        "meta_ra_of_asc_node": 86.0595,
        "meta_arg_of_pericenter": 174.1629,
        "meta_mean_anomaly": 320.014,
        "meta_ephemeris_type": 0,
        "meta_classification_type": "U",
        "meta_norad_cat_id": 36411,
        "meta_element_set_no": 999,
        "meta_rev_at_epoch": 5775,
        "meta_bstar": 0,
        "meta_mean_motion_dot": 4.4e-07,
        "meta_mean_motion_ddot": 0,
        "tle_line1": "1 36411U 10008A   25345.21842934  .00000044  00000+0  00000+0 0  9992",
        "tle_line2": "2 36411   0.8105  86.0595 0005827 174.1629 320.0140  1.00269399 57759"
      },
      "geometry": {
        "type": "Point",
        "coordinates": [
          -9.223962617183798,
          -0.8041511572082995
        ]
      }
    }
  ]
}